0 FENGYUN 1C DEB
1 30886U 99025AXY 13281.42201485  .00001208  00000-0  77123-3 0  1111
2 30886 099.2111 348.7505 0041354 234.8022 260.4873 14.05146195337290
0 FENGYUN 1C DEB
1 30886U 99025AXY 13283.41614008  .00001283  00000-0  81731-3 0  1125
2 30886 099.2112 350.7750 0041516 229.4045 267.7183 14.05156581337576
0 FENGYUN 1C DEB
1 30886U 99025AXY 13285.47979199  .00001177  00000-0  75187-3 0  1139
2 30886 099.2109 352.8704 0041738 223.8912 266.6379 14.05161145337860
0 FENGYUN 1C DEB
1 30886U 99025AXY 13286.69461431  .00001402  00000-0  89008-3 0  1148
2 30886 099.2108 354.1039 0041859 220.7119 291.7344 14.05163617338031
0 FENGYUN 1C DEB
1 30886U 99025AXY 13288.16520363  .00001957  00000-0  12308-2 0  1156
2 30886 099.2103 355.5971 0041980 216.8332 170.6570 14.05170684338245
0 FENGYUN 1C DEB
1 30886U 99025AXY 13289.46630535  .00001619  00000-0  10227-2 0  1167
2 30886 099.2099 356.9182 0042109 213.3728 272.2922 14.05175369338428
0 FENGYUN 1C DEB
1 30886U 99025AXY 13291.15428880  .00001864  00000-0  11733-2 0  1170
2 30886 099.2095 358.6320 0042258 208.9319 170.9576 14.05179844338665
0 FENGYUN 1C DEB
1 30886U 99025AXY 13292.45651362  .00002070  00000-0  12997-2 0  1181
2 30886 099.2091 359.9537 0042380 205.5072 278.2858 14.05183579338845
0 FENGYUN 1C DEB
1 30886U 99025AXY 13293.86620876  .00002369  00000-0  14828-2 0  1190
2 30886 099.2087 001.3844 0042367 201.5032 209.5734 14.05188275339047
0 FENGYUN 1C DEB
1 30886U 99025AXY 13295.14368662  .00002693  00000-0  16812-2 0  1202
2 30886 099.2086 002.6810 0042437 198.1643 191.7405 14.05192740339229
